NORAD_CAT_ID,OBJECT_NAME,OBJECT_TYPE,EPOCH,MEAN_MOTION,ECCENTRICITY,INCLINATION,RA_OF_ASC_NODE,ARG_OF_PERICENTER,MEAN_ANOMALY,BSTAR,MEAN_MOTION_DOT,MEAN_MOTION_DDOT,TLE_LINE0,TLE_LINE1,TLE_LINE2,SEMIMAJOR_AXIS,PERIOD,APOGEE,PERIGEE,DECAYED
53159.0,STARLINK-4111,PAYLOAD,2023-06-11 15:05:37,15.08838222,0.0001017,53.2185,342.5434,85.6448,274.466,6.3892e-05,7.29e-06,0.0,0 STARLINK-4111,1 53159U 22083AD  23162.62890654  .00000729  00000-0  63892-4 0  9992,2 53159  53.2185 342.5434 0001017  85.6448 274.4660 15.08838222 50719,6917.886,95.438,540.454,539.047,0.0
53159.0,STARLINK-4111,PAYLOAD,2023-06-11 18:16:23,15.08840702,0.0001002,53.2185,341.9483,87.0229,273.0878,8.0994e-05,1.002e-05,0.0,0 STARLINK-4111,1 53159U 22083AD  23162.76138434  .00001002  00000-0  80994-4 0  9995,2 53159  53.2185 341.9483 0001002  87.0229 273.0878 15.08840702 50108,6917.878,95.438,540.436,539.05,0.0
53159.0,STARLINK-4111,PAYLOAD,2023-06-12 05:24:05,15.08843904,9.14e-05,53.2179,339.8685,93.0042,267.1054,5.0943e-05,5.23e-06,0.0,0 STARLINK-4111,1 53159U 22083AD  23163.22506214  .00000523  00000-0  50943-4 0  9990,2 53159  53.2179 339.8685 0000914  93.0042 267.1054 15.08843904 50176,6917.868,95.437,540.366,539.101,0.0
53159.0,STARLINK-4111,PAYLOAD,2023-06-12 18:07:10,15.08838426,9.04e-05,53.2175,337.4916,84.0376,276.0719,4.6431e-05,4.51e-06,0.0,0 STARLINK-4111,1 53159U 22083AD  23163.75498647  .00000451  00000-0  46431-4 0  9995,2 53159  53.2175 337.4916 0000904  84.0376 276.0719 15.08838426 50880,6917.885,95.438,540.376,539.125,0.0
53159.0,STARLINK-4111,PAYLOAD,2023-06-13 17:57:57,15.08854461,9.61e-05,53.2184,333.031,77.0745,283.0354,-0.00010936,-2.028e-05,0.0,0 STARLINK-4111,1 53159U 22083AD  23164.74857685 -.00002028  00000-0 -10936-3 0  9990,2 53159  53.2184 333.0310 0000961  77.0745 283.0354 15.08854461 51033,6917.836,95.437,540.366,539.036,0.0
53159.0,STARLINK-4111,PAYLOAD,2023-06-14 11:27:12,15.08834253,0.0001009,53.2182,329.763,77.5106,282.5999,5.5587e-05,5.97e-06,0.0,0 STARLINK-4111,1 53159U 22083AD  23165.47722963  .00000597  00000-0  55587-4 0  9990,2 53159  53.2182 329.7630 0001009  77.5106 282.5999 15.08834253 51146,6917.898,95.438,540.461,539.065,0.0
53159.0,STARLINK-4111,PAYLOAD,2023-06-14 13:02:35,15.08833943,9.74e-05,53.2176,329.4641,80.9129,279.1973,3.7078e-05,3.02e-06,0.0,0 STARLINK-4111,1 53159U 22083AD  23165.54347019  .00000302  00000-0  37078-4 0  9992,2 53159  53.2176 329.4641 0000974  80.9129 279.1973 15.08833943 50521,6917.899,95.438,540.438,539.09,0.0
53159.0,STARLINK-4111,PAYLOAD,2023-06-14 17:48:44,15.08839371,8.72e-05,53.2182,328.571,90.6672,269.442,6.2122e-05,7.01e-06,0.0,0 STARLINK-4111,1 53159U 22083AD  23165.74218614  .00000701  00000-0  62122-4 0  9993,2 53159  53.2182 328.5710 0000872  90.6672 269.4420 15.08839371 50556,6917.882,95.438,540.351,539.144,0.0
53159.0,STARLINK-4111,PAYLOAD,2023-06-14 20:59:30,15.08842076,8.91e-05,53.2179,327.9758,90.7823,269.3271,6.7855e-05,7.92e-06,0.0,0 STARLINK-4111,1 53159U 22083AD  23165.87466420  .00000792  00000-0  67855-4 0  9995,2 53159  53.2179 327.9758 0000891  90.7823 269.3271 15.08842076 51209,6917.874,95.437,540.355,539.123,0.0
53159.0,STARLINK-4111,PAYLOAD,2023-06-15 06:31:50,15.08840673,8.07e-05,53.2175,326.1914,86.7921,273.3164,-3.7094e-05,-8.78e-06,0.0,0 STARLINK-4111,1 53159U 22083AD  23166.27211007 -.00000878  00000-0 -37094-4 0  9998,2 53159  53.2175 326.1914 0000807  86.7921 273.3164 15.08840673 51264,6917.878,95.438,540.302,539.185,0.0
53159.0,STARLINK-4111,PAYLOAD,2023-06-15 11:17:59,15.08838355,8.22e-05,53.2175,325.2993,85.1246,274.984,-3.5153e-05,-8.47e-06,0.0,0 STARLINK-4111,1 53159U 22083AD  23166.47083134 -.00000847  00000-0 -35153-4 0  9998,2 53159  53.2175 325.2993 0000822  85.1246 274.9840 15.08838355 50666,6917.885,95.438,540.319,539.182,0.0
53159.0,STARLINK-4111,PAYLOAD,2023-06-15 17:39:32,15.0884307,8.54e-05,53.2176,324.1104,86.127,273.982,6.4667e-06,-1.85e-06,0.0,0 STARLINK-4111,1 53159U 22083AD  23166.73578715 -.00000185  00000-0  64667-5 0  9998,2 53159  53.2176 324.1104 0000854  86.1270 273.9820 15.08843070 50704,6917.871,95.437,540.327,539.145,0.0
53159.0,STARLINK-4111,PAYLOAD,2023-06-16 04:47:13,15.08842964,9e-05,53.2177,322.029,88.2109,271.8987,8.8072e-06,-1.48e-06,0.0,0 STARLINK-4111,1 53159U 22083AD  23167.19946661 -.00000148  00000-0  88072-5 0  9993,2 53159  53.2177 322.0290 0000900  88.2109 271.8987 15.08842964 50773,6917.871,95.437,540.359,539.114,0.0
53159.0,STARLINK-4111,PAYLOAD,2023-06-16 14:19:32,15.08846004,8.58e-05,53.2178,320.2449,92.1257,267.9833,0.00015619,2.199e-05,0.0,0 STARLINK-4111,1 53159U 22083AD  23167.59690160  .00002199  00000-0  15619-3 0  9999,2 53159  53.2178 320.2449 0000858  92.1257 267.9833 15.08846004 51462,6917.862,95.437,540.321,539.133,0.0
53159.0,STARLINK-4111,PAYLOAD,2023-06-16 19:05:40,15.08855252,9.48e-05,53.2177,319.3532,95.6428,264.4672,0.00022711,3.33e-05,0.0,0 STARLINK-4111,1 53159U 22083AD  23167.79561319  .00003330  00000-0  22711-3 0  9993,2 53159  53.2177 319.3532 0000948  95.6428 264.4672 15.08855252 50862,6917.834,95.437,540.355,539.043,0.0
53159.0,STARLINK-4111,PAYLOAD,2023-06-17 03:02:37,15.08840297,7.57e-05,53.2179,317.8661,72.8618,287.2457,7.691e-05,9.37e-06,0.0,0 STARLINK-4111,1 53159U 22083AD  23168.12682568  .00000937  00000-0  76910-4 0  9992,2 53159  53.2179 317.8661 0000757  72.8618 287.2457 15.08840297 51549,6917.879,95.438,540.268,539.221,0.0
53159.0,STARLINK-4111,PAYLOAD,2023-06-17 12:34:58,15.08815985,8.09e-05,53.2178,316.083,79.4284,280.6799,-7.7658e-05,-1.522e-05,0.0,0 STARLINK-4111,1 53159U 22083AD  23168.52428951 -.00001522  00000-0 -77658-4 0  9993,2 53159  53.2178 316.0830 0000809  79.4284 280.6799 15.08815985 51606,6917.954,95.439,540.378,539.259,0.0
53159.0,STARLINK-4111,PAYLOAD,2023-06-17 14:10:20,15.0881652,7.92e-05,53.2171,315.7853,75.3192,284.7888,-0.00024031,-4.108e-05,0.0,0 STARLINK-4111,1 53159U 22083AD  23168.59052036 -.00004108  00000-0 -24031-3 0  9996,2 53159  53.2171 315.7853 0000792  75.3192 284.7888 15.08816520 50984,6917.952,95.439,540.365,539.269,0.0
53159.0,STARLINK-4111,PAYLOAD,2023-06-18 09:14:58,15.0883504,9.08e-05,53.2167,312.2164,69.1695,290.9394,0.00015604,2.196e-05,0.0,0 STARLINK-4111,1 53159U 22083AD  23169.38539845  .00002196  00000-0  15604-3 0  9991,2 53159  53.2167 312.2164 0000908  69.1695 290.9394 15.08835040 51737,6917.896,95.438,540.389,539.132,0.0
53159.0,STARLINK-4111,PAYLOAD,2023-06-18 15:36:31,15.08839699,9.37e-05,53.2164,311.027,61.9133,298.1954,0.00077548,0.00012075,0.0,0 STARLINK-4111,1 53159U 22083AD  23169.65036154  .00012075  00000-0  77548-3 0  9998,2 53159  53.2164 311.0270 0000937  61.9133 298.1954 15.08839699 51149,6917.881,95.438,540.395,539.098,0.0
53159.0,STARLINK-4111,PAYLOAD,2023-06-19 02:44:13,15.08853692,9.87e-05,53.2163,308.9454,58.0035,302.1053,0.00083716,0.00013066,0.0,0 STARLINK-4111,1 53159U 22083AD  23170.11403940  .00013066  00000-0  83716-3 0  9997,2 53159  53.2163 308.9454 0000987  58.0035 302.1053 15.08853692 51842,6917.839,95.437,540.386,539.021,0.0
53159.0,STARLINK-4111,PAYLOAD,2023-06-19 12:16:31,15.0885663,0.0001035,53.2164,307.1613,57.2075,302.9017,0.00060443,9.349e-05,0.0,0 STARLINK-4111,1 53159U 22083AD  23170.51147662  .00009349  00000-0  60443-3 0  9998,2 53159  53.2164 307.1613 0001035  57.2075 302.9017 15.08856630 51271,6917.83,95.437,540.411,538.979,0.0
53159.0,STARLINK-4111,PAYLOAD,2023-06-19 15:27:17,15.08861929,0.0001033,53.2162,306.5664,56.1481,303.9609,0.00070224,0.00010913,0.0,0 STARLINK-4111,1 53159U 22083AD  23170.64395401  .00010913  00000-0  70224-3 0  9995,2 53159  53.2162 306.5664 0001033  56.1481 303.9609 15.08861929 51292,6917.813,95.436,540.393,538.964,0.0
53159.0,STARLINK-4111,PAYLOAD,2023-06-20 02:34:59,15.08858947,7.76e-05,53.2169,304.485,57.4822,302.6245,0.0004913,7.544e-05,0.0,0 STARLINK-4111,1 53159U 22083AD  23171.10763030  .00007544  00000-0  49130-3 0  9992,2 53159  53.2169 304.4850 0000776  57.4822 302.6245 15.08858947 51994,6917.822,95.436,540.224,539.151,0.0
53159.0,STARLINK-4111,PAYLOAD,2023-06-20 15:18:04,15.08844783,8.01e-05,53.2168,302.1066,59.8885,300.2187,2.2113e-05,6.4e-07,0.0,0 STARLINK-4111,1 53159U 22083AD  23171.63755153  .00000064  00000-0  22113-4 0  9990,2 53159  53.2168 302.1066 0000801  59.8885 300.2187 15.08844783 52073,6917.866,95.437,540.285,539.177,0.0
53159.0,STARLINK-4111,PAYLOAD,2023-06-20 18:28:50,15.08850244,9.43e-05,53.2168,301.5107,74.8195,285.2901,0.00021478,3.133e-05,0.0,0 STARLINK-4111,1 53159U 22083AD  23171.77003024  .00003133  00000-0  21478-3 0  9990,2 53159  53.2168 301.5107 0000943  74.8195 285.2901 15.08850244 51467,6917.849,95.437,540.366,539.062,0.0
53159.0,STARLINK-4111,PAYLOAD,2023-06-21 13:33:28,15.08841552,0.0001002,53.2164,297.9401,87.3084,272.8023,3.3886e-05,2.52e-06,0.0,0 STARLINK-4111,1 53159U 22083AD  23172.56491359  .00000252  00000-0  33886-4 0  9996,2 53159  53.2164 297.9401 0001002  87.3084 272.8023 15.08841552 51583,6917.876,95.437,540.434,539.047,0.0
53159.0,STARLINK-4111,PAYLOAD,2023-06-21 15:08:51,15.08846787,9.78e-05,53.2168,297.6423,95.5902,264.5202,-1.8701e-05,-5.85e-06,0.0,0 STARLINK-4111,1 53159U 22083AD  23172.63115202 -.00000585  00000-0 -18701-4 0  9994,2 53159  53.2168 297.6423 0000978  95.5902 264.5202 15.08846787 51592,6917.86,95.437,540.401,539.048,0.0
53159.0,STARLINK-4111,PAYLOAD,2023-06-22 08:38:06,15.08836865,8.97e-05,53.217,294.3761,85.7609,274.3486,0.00012043,1.629e-05,0.0,0 STARLINK-4111,1 53159U 22083AD  23173.35979763  .00001629  00000-0  12043-3 0  9994,2 53159  53.2170 294.3761 0000897  85.7609 274.3486 15.08836865 52331,6917.89,95.438,540.376,539.134,0.0
53159.0,STARLINK-4111,PAYLOAD,2023-06-23 14:50:25,15.08853015,8.96e-05,53.2166,288.7267,81.6515,278.4579,0.00029991,4.49e-05,0.0,0 STARLINK-4111,1 53159U 22083AD  23174.61835061  .00004490  00000-0  29991-3 0  9995,2 53159  53.2166 288.7267 0000896  81.6515 278.4579 15.08853015 52529,6917.841,95.437,540.325,539.086,0.0
